EXO-0                   
1 59175U 23174DK  26068.71046781  .00011582  00000+0  36716-3 0  9992
2 59175  97.3864 148.9039 0009878 157.1125 203.0559 15.32821991129797
STARLINK-31999          
1 60101U 24117L   26068.30351011  .00000952  00000+0  44260-4 0  9994
2 60101  53.1615  39.1798 0001313  95.3004 264.8147 15.30197018 96829
